{
  "type": "FeatureCollection",
  "features": [
    {
      "type": "Feature",
      "properties": {
        "norad_id": 32376,
        "name": "COSMO-SKYMED 2",
        "group": "resource",
        "lat": -55.46595030076423,
        "lon": -172.86399312043878,
        "alt_km": 630.3042685944147,
        "timestamp": "2025-12-20T07:33:50.460206+00:00",
        "meta_object_name": "COSMO-SKYMED 2",
        "meta_object_id": "2007-059A",
        "meta_epoch": "2025-12-19T22:05:45.462048",
        "meta_mean_motion": 14.8215075,
        "meta_eccentricity": 0.00013535,
        "meta_inclination": 97.8804,
        "meta_ra_of_asc_node": 175.1363,
        "meta_arg_of_pericenter": 82.9394,
        "meta_mean_anomaly": 277.1973,
        "meta_ephemeris_type": 0,
        "meta_classification_type": "U",
        "meta_norad_cat_id": 32376,
        "meta_element_set_no": 999,
        "meta_rev_at_epoch": 97544,
        "meta_bstar": 5.1680259e-05,
        "meta_mean_motion_dot": 3.59e-06,
        "meta_mean_motion_ddot": 0,
        "tle_line1": "1 32376U 07059A   25353.92066507  .00000359  00000+0  51680-4 0  9995",
        "tle_line2": "2 32376  97.8804 175.1363 0001353  82.9394 277.1973 14.82150750975440"
      },
      "geometry": {
        "type": "Point",
        "coordinates": [
          -172.86399312043878,
          -55.46595030076423
        ]
      }
    },
    {
      "type": "Feature",
      "properties": {
        "norad_id": 32382,
        "name": "RADARSAT-2",
        "group": "resource",
        "lat": -81.09379317703505,
        "lon": 73.23002075541234,
        "alt_km": 799.9064879325433,
        "timestamp": "2025-12-20T07:33:50.460217+00:00",
        "meta_object_name": "RADARSAT-2",
        "meta_object_id": "2007-061A",
        "meta_epoch": "2025-12-19T23:34:36.537312",
        "meta_mean_motion": 14.29983859,
        "meta_eccentricity": 0.00011092,
        "meta_inclination": 98.5791,
        "meta_ra_of_asc_node": 358.4673,
        "meta_arg_of_pericenter": 85.6069,
        "meta_mean_anomaly": 274.524,
        "meta_ephemeris_type": 0,
        "meta_classification_type": "U",
        "meta_norad_cat_id": 32382,
        "meta_element_set_no": 999,
        "meta_rev_at_epoch": 94034,
        "meta_bstar": 3.9467192e-05,
        "meta_mean_motion_dot": 5.8e-07,
        "meta_mean_motion_ddot": 0,
        "tle_line1": "1 32382U 07061A   25353.98236733  .00000058  00000+0  39467-4 0  9996",
        "tle_line2": "2 32382  98.5791 358.4673 0001109  85.6069 274.5240 14.29983859940342"
      },
      "geometry": {
        "type": "Point",
        "coordinates": [
          73.23002075541234,
          -81.09379317703505
        ]
      }
    },
    {
      "type": "Feature",
      "properties": {
        "norad_id": 32783,
        "name": "CARTOSAT-2A",
        "group": "resource",
        "lat": -3.9693543191044025,
        "lon": 44.44675685523694,
        "alt_km": 628.5508571150713,
        "timestamp": "2025-12-20T07:33:50.460234+00:00",
        "meta_object_name": "CARTOSAT-2A",
        "meta_object_id": "2008-021A",
        "meta_epoch": "2025-12-19T21:50:22.113024",
        "meta_mean_motion": 14.78949388,
        "meta_eccentricity": 0.0011298,
        "meta_inclination": 97.7925,
        "meta_ra_of_asc_node": 43.5098,
        "meta_arg_of_pericenter": 341.4154,
        "meta_mean_anomaly": 18.6644,
        "meta_ephemeris_type": 0,
        "meta_classification_type": "U",
        "meta_norad_cat_id": 32783,
        "meta_element_set_no": 999,
        "meta_rev_at_epoch": 95230,
        "meta_bstar": 0.00010597904,
        "meta_mean_motion_dot": 7.32e-06,
        "meta_mean_motion_ddot": 0,
        "tle_line1": "1 32783U 08021A   25353.90997816  .00000732  00000+0  10598-3 0  9998",
        "tle_line2": "2 32783  97.7925  43.5098 0011298 341.4154  18.6644 14.78949388952305"
      },
      "geometry": {
        "type": "Point",
        "coordinates": [
          44.44675685523694,
          -3.9693543191044025
        ]
      }
    },
    {
      "type": "Feature",
      "properties": {
        "norad_id": 33320,
        "name": "HUANJING 1A (HJ-1A)",
        "group": "resource",
        "lat": -17.166662773680756,
        "lon": -15.321988971159344,
        "alt_km": 611.3402487358462,
        "timestamp": "2025-12-20T07:33:50.460244+00:00",
        "meta_object_name": "HUANJING 1A (HJ-1A)",
        "meta_object_id": "2008-041A",
        "meta_epoch": "2025-12-19T23:32:50.093376",
        "meta_mean_motion": 14.83414116,
        "meta_eccentricity": 0.00196288,
        "meta_inclination": 97.6535,
        "meta_ra_of_asc_node": 341.9772,
        "meta_arg_of_pericenter": 11.3481,
        "meta_mean_anomaly": 348.8172,
        "meta_ephemeris_type": 0,
        "meta_classification_type": "U",
        "meta_norad_cat_id": 33320,
        "meta_element_set_no": 999,
        "meta_rev_at_epoch": 93183,
        "meta_bstar": 0.00010046819,
        "meta_mean_motion_dot": 7.76e-06,
        "meta_mean_motion_ddot": 0,
        "tle_line1": "1 33320U 08041A   25353.98113534  .00000776  00000+0  10047-3 0  9990",
        "tle_line2": "2 33320  97.6535 341.9772 0019628  11.3481 348.8172 14.83414116931835"
      },
      "geometry": {
        "type": "Point",
        "coordinates": [
          -15.321988971159344,
          -17.166662773680756
        ]
      }
    },
    {
      "type": "Feature",
      "properties": {
        "norad_id": 33321,
        "name": "HUANJING 1B (HJ-1B)",
        "group": "resource",
        "lat": -8.671789924213622,
        "lon": 164.80140157652053,
        "alt_km": 643.8067526435007,
        "timestamp": "2025-12-20T07:33:50.460255+00:00",
        "meta_object_name": "HUANJING 1B (HJ-1B)",
        "meta_object_id": "2008-041B",
        "meta_epoch": "2025-12-19T22:37:16.821120",
        "meta_mean_motion": 14.82839799,
        "meta_eccentricity": 0.00379852,
        "meta_inclination": 97.6395,
        "meta_ra_of_asc_node": 345.6183,
        "meta_arg_of_pericenter": 53.019,
        "meta_mean_anomaly": 307.4492,
        "meta_ephemeris_type": 0,
        "meta_classification_type": "U",
        "meta_norad_cat_id": 33321,
        "meta_element_set_no": 999,
        "meta_rev_at_epoch": 93184,
        "meta_bstar": 0.00015884085,
        "meta_mean_motion_dot": 1.25e-05,
        "meta_mean_motion_ddot": 0,
        "tle_line1": "1 33321U 08041B   25353.94255580  .00001250  00000+0  15884-3 0  9997",
        "tle_line2": "2 33321  97.6395 345.6183 0037985  53.0190 307.4492 14.82839799931847"
      },
      "geometry": {
        "type": "Point",
        "coordinates": [
          164.80140157652053,
          -8.671789924213622
        ]
      }
    },
    {
      "type": "Feature",
      "properties": {
        "norad_id": 33331,
        "name": "GEOEYE 1",
        "group": "resource",
        "lat": 41.53512390380676,
        "lon": 58.230520919365446,
        "alt_km": 676.3759860140126,
        "timestamp": "2025-12-20T07:33:50.460266+00:00",
        "meta_object_name": "GEOEYE 1",
        "meta_object_id": "2008-042A",
        "meta_epoch": "2025-12-19T18:15:22.928256",
        "meta_mean_motion": 14.64709112,
        "meta_eccentricity": 0.00028007,
        "meta_inclination": 98.1245,
        "meta_ra_of_asc_node": 64.9529,
        "meta_arg_of_pericenter": 254.2617,
        "meta_mean_anomaly": 105.8277,
        "meta_ephemeris_type": 0,
        "meta_classification_type": "U",
        "meta_norad_cat_id": 33331,
        "meta_element_set_no": 999,
        "meta_rev_at_epoch": 92388,
        "meta_bstar": 8.4483362e-05,
        "meta_mean_motion_dot": 4.02e-06,
        "meta_mean_motion_ddot": 0,
        "tle_line1": "1 33331U 08042A   25353.76068204  .00000402  00000+0  84483-4 0  9994",
        "tle_line2": "2 33331  98.1245  64.9529 0002800 254.2617 105.8277 14.64709112923881"
      },
      "geometry": {
        "type": "Point",
        "coordinates": [
          58.230520919365446,
          41.53512390380676
        ]
      }
    },
    {
      "type": "Feature",
      "properties": {
        "norad_id": 33396,
        "name": "THEOS",
        "group": "resource",
        "lat": 55.57632217140178,
        "lon": -115.08211608252975,
        "alt_km": 818.9526802280334,
        "timestamp": "2025-12-20T07:33:50.460278+00:00",
        "meta_object_name": "THEOS",
        "meta_object_id": "2008-049A",
        "meta_epoch": "2025-12-19T22:31:48.393984",
        "meta_mean_motion": 14.20097491,
        "meta_eccentricity": 0.00011717,
        "meta_inclination": 98.5864,
        "meta_ra_of_asc_node": 51.8163,
        "meta_arg_of_pericenter": 95.9142,
        "meta_mean_anomaly": 264.2169,
        "meta_ephemeris_type": 0,
        "meta_classification_type": "U",
        "meta_norad_cat_id": 33396,
        "meta_element_set_no": 999,
        "meta_rev_at_epoch": 89252,
        "meta_bstar": 4.9297604e-05,
        "meta_mean_motion_dot": 6.2e-07,
        "meta_mean_motion_ddot": 0,
        "tle_line1": "1 33396U 08049A   25353.93875456  .00000062  00000+0  49298-4 0  9993",
        "tle_line2": "2 33396  98.5864  51.8163 0001171  95.9142 264.2169 14.20097491892523"
      },
      "geometry": {
        "type": "Point",
        "coordinates": [
          -115.08211608252975,
          55.57632217140178
        ]
      }
    }
  ]
}